SL-3 R/B                
1 19046U 88032B   22280.90152202  .00002916  00000+0  21205-3 0  9996
2 19046  97.3994 274.9466 0034966 212.6380 147.2686 15.04093230863515
SL-16 R/B               
1 19120U 88039B   22280.86926915  .00000093  00000+0  67239-4 0  9993
2 19120  71.0153 188.3994 0019623  95.9224 264.4138 14.19258631781178
COSMOS 1953             
1 19210U 88050A   22281.17785729  .00004028  00000+0  26096-3 0  9994
2 19210  82.5175 311.1022 0012868 122.2833 237.9643 15.07811098869679
SL-8 R/B                
1 19257U 88053B   22281.41151562  .00000334  00000+0  11975-3 0  9993
2 19257  74.0470 250.8290 0019977  17.3606  97.7310 14.37643120797416
COSMOS 1975             
1 19573U 88093A   22281.43572174  .00005353  00000+0  35808-3 0  9993
2 19573  82.5144 266.9270 0013490 158.7769 201.4022 15.06689010851475
SL-14 R/B               
1 19574U 88093B   22281.53564624  .00000573  00000+0  66476-4 0  9991
2 19574  82.5299 131.6053 0020964 198.0000 224.3345 14.83563772836940
SL-16 R/B               
1 19650U 88102B   22281.36317173 -.00000232  00000+0 -93838-4 0  9999
2 19650  70.9983 257.3916 0012014 115.4573 244.7794 14.15841828750467
INTERCOSMOS 24          
1 20261U 89080A   22281.19996167  .00001104  00000+0  33247-3 0  9996
2 20261  82.6081 194.7368 1200328 302.9132  46.1984 12.56535442509409
SL-14 R/B               
1 20262U 89080C   22280.88316874  .00000247  00000+0  67291-4 0  9997
2 20262  82.5898 254.2390 1236681 156.1183 210.2735 12.49103191504157
DELTA 2 R/B(1)          
1 20303U 89085B   22281.16393433  .00039359  00000+0  91272-3 0  9997
2 20303  35.6370  89.8921 0072480 147.9929 212.5232 15.38627734797267
DELTA 1 R/B             
1 20323U 89089B   22281.08922685  .00000516  00000+0  14154-3 0  9998
2 20323  97.0718 304.6412 0073054  99.6210 261.3250 14.48573943735372
ARIANE 40 R/B           
1 20443U 90005H   22280.77200981  .00000389  00000+0  14230-3 0  9997
2 20443  98.4729 347.1289 0010156 356.5570   3.5546 14.38280384713186
DELTA 2 R/B(1)          
1 20453U 90008B   22280.78193627  .00009804  00000+0  50402-3 0  9992
2 20453  35.6234 316.0410 0261740 155.5385 205.8006 14.90781112736670
COSMOS 2058             
1 20465U 90010A   22281.22128095  .00002657  00000+0  21590-3 0  9990
2 20465  82.4921 181.9124 0013682 235.5707 124.4224 14.99175610775630
SL-14 R/B               
1 20466U 90010B   22281.47903247  .00000603  00000+0  73449-4 0  9998
2 20466  82.5065 357.7468 0021957  88.0810 272.2918 14.81606879764609
SL-14 R/B               
1 20511U 90018B   22280.83124836  .00000507  00000+0  63536-4 0  9994
2 20511  82.5210 308.5034 0016144 231.8197 301.4330 14.80251774737717
HST                     
1 20580U 90037B   22281.07000444  .00004658  00000+0  26111-3 0  9994
2 20580  28.4692 142.3744 0002447 165.3688 323.9299 15.10999173583533
SL-16 R/B               
1 20625U 90046B   22281.07057683  .00000143  00000+0  99149-4 0  9998
2 20625  71.0017  39.5286 0012987  33.8043 326.3905 14.14709073672036
COSMOS 2084             
1 20663U 90055A   22281.16253966  .00004193  00000+0  35853-3 0  9992
2 20663  62.7925 232.7191 0126366  61.3241 300.0489 14.93220144749134
SL-6 R/B(2)             
1 20666U 90055D   22281.12979927  .00003426  00000+0  28924-3 0  9992
2 20666  62.7844 147.0229 0132381  83.4758 278.1388 14.93564373750555
SL-8 R/B                
1 20775U 90078B   22281.40050325  .00010839  00000+0  49713-3 0  9996
2 20775  82.9220 248.8284 0547768  93.7105 272.6870 14.41177951626774
SL-8 R/B                
1 21088U 91006B   22280.81356142  .00000095  00000+0  80332-4 0  9992
2 21088  82.9470  18.9070 0021349 293.8999 182.0055 13.77216094592157
OKEAN-3                 
1 21397U 91039A   22281.43243525  .00003070  00000+0  28533-3 0  9990
2 21397  82.5179  95.0092 0016404 223.5852 136.4074 14.93959705699127
COSMOS 2151             
1 21422U 91042A   22281.13948672  .00002207  00000+0  21041-3 0  9993
2 21422  82.5036 200.3640 0012575 300.8794  59.1189 14.92876891697643
SL-14 R/B               
1 21423U 91042B   22280.81897296  .00000506  00000+0  63791-4 0  9992
2 21423  82.4919 309.5346 0018116  24.1503 336.0555 14.79996587668247
ERS-1                   
1 21574U 91050A   22281.49367246  .00000357  00000+0  13256-3 0  9994
2 21574  98.7114 251.7722 0032044 304.2847  55.5307 14.37943543636247
ARIANE 40 R/B           
1 21610U 91050F   22281.43695264  .00000419  00000+0  14337-3 0  9993
2 21610  98.3709 348.6936 0002250 231.6822 128.4165 14.41117738639372
INTERCOSMOS 25          
1 21819U 91086A   22281.20486186  .00001936  00000+0  39531-3 0  9997
2 21819  82.6073 341.0691 1511672 275.2905  67.8086 12.06030748345835
SL-8 R/B                
1 21876U 92008B   22280.91643385  .00000016  00000+0  32520-6 0  9990
2 21876  82.9231 116.2440 0035334  23.7501  86.0199 13.75715615537701
SL-8 R/B                
1 21938U 92020B   22281.23077503  .00000093  00000+0  81054-4 0  9991
2 21938  82.9349   0.8610 0029332 179.4687 241.8582 13.75315329529810
COSMOS 2219             
1 22219U 92076A   22281.52483493 -.00000167  00000+0 -63014-4 0  9996
2 22219  71.0592 106.4824 0020634 303.3173  56.5973 14.13711320542281
SL-16 R/B               
1 22220U 92076B   22281.19631451 -.00000133  00000+0 -42727-4 0  9991
2 22220  70.9989 297.5144 0013812 207.8275 219.9063 14.16508723545348
COSMOS 2221             
1 22236U 92080A   22280.79100744  .00002437  00000+0  25791-3 0  9992
2 22236  82.5110  27.4325 0017467  48.3491 311.9219 14.88691598594543
SL-16 R/B               
1 22285U 92093B   22280.84556403  .00000282  00000+0  16992-3 0  9992
2 22285  71.0195 105.1933 0002934  27.6533 332.4746 14.15100005536460
COSMOS 2228             
1 22286U 92094A   22281.15074185  .00002013  00000+0  21087-3 0  9996
2 22286  82.5227 344.3363 0021353 157.2302 202.9868 14.88956665610862
SL-16 R/B               
1 22566U 93016B   22281.13408722  .00000316  00000+0  18756-3 0  9991
2 22566  71.0081 316.8468 0008412  56.3282 303.8641 14.15014739525548
COSMOS 2242             
1 22626U 93024A   22280.81306524  .00002494  00000+0  26318-3 0  9990
2 22626  82.5257  13.1412 0019182 158.5114 201.6914 14.88780124594124
SL-16 R/B               
1 22803U 93059B   22280.94875180  .00000206  00000+0  12646-3 0  9996
2 22803  70.9890 123.7186 0019046 308.3300  51.6111 14.16879678502891
ARIANE 40 R/B           
1 22830U 93061H   22281.18730428  .00000273  00000+0  11915-3 0  9993
2 22830  98.6521 343.6865 0011005  14.2124 345.9367 14.31593089515645
COSMOS 2278             
1 23087U 94023A   22281.17230311 -.00000198  00000+0 -79523-4 0  9990
2 23087  71.0518 266.1389 0007214 150.3984 209.7548 14.13883110468556
SL-16 R/B               
1 23088U 94023B   22280.88358715  .00000356  00000+0  20943-3 0  9992
2 23088  71.0003 172.8707 0002710 355.9717   4.1384 14.14722878469455
SL-16 R/B               
1 23343U 94074B   22281.18184907  .00000591  00000+0  90815-4 0  9993
2 23343  97.8804 331.6133 0005892 321.5894 104.7933 14.77105487503019
SL-16 R/B               
1 23405U 94077B   22281.49008996 -.00000198  00000+0 -77045-4 0  9997
2 23405  70.9811  97.8067 0005015 265.8118  94.2431 14.15267889439887
ERS-2                   
1 23560U 95021A   22280.86044972  .00014033  00000+0  51516-3 0  9998
2 23560  98.4979 201.8370 0003760 144.8533 215.2952 15.28085097470506
ARIANE 40+ R/B          
1 23561U 95021B   22281.18587987  .00000379  00000+0  13972-3 0  9995
2 23561  98.6112 338.8758 0005883 270.4758 154.3967 14.38200600439910
SL-16 R/B               
1 23705U 95058B   22281.43264117 -.00000231  00000+0 -94290-4 0  9992
2 23705  71.0209 280.2246 0014303 229.8716 130.1154 14.15185061391536
SL-16 R/B               
1 24298U 96051B   22281.13160386  .00000098  00000+0  79579-4 0  9996
2 24298  70.8212 293.0390 0017676 192.3671 167.7018 14.12438771345605
ORBVIEW 2 (SEASTAR)     
1 24883U 97037A   22280.86267076  .00000442  00000+0  17520-3 0  9994
2 24883  98.6948  44.6755 0003125 126.9669 233.1802 14.33794016329418
SL-16 R/B               
1 25400U 98043G   22281.08072800  .00000103  00000+0  61992-4 0  9999
2 25400  98.6783 215.9957 0010716  45.6029 314.6027 14.25531730261297
SL-16 R/B               
1 25407U 98045B   22281.41147391  .00000308  00000+0  18076-3 0  9994
2 25407  71.0097 285.9426 0005905 142.5427 217.6109 14.15871797250669
ISS (ZARYA)             
1 25544U 98067A   22281.54060918  .00015160  00000+0  27464-3 0  9996
2 25544  51.6425 134.9971 0002936 273.5087 176.8424 15.49837370362764
CZ-4B R/B               
1 25732U 99025C   22281.35336892  .00000096  00000+0  68875-4 0  9990
2 25732  98.8430 322.2940 0036714 326.1459  44.2552 14.17746918211392
OKEAN-O                 
1 25860U 99039A   22281.11702408  .00000793  00000+0  11985-3 0  9994
2 25860  98.1280 321.8913 0001765  79.8748 280.2661 14.77038352249976
SL-16 R/B               
1 25861U 99039B   22281.33370070  .00000698  00000+0  10199-3 0  9995
2 25861  98.1717 310.1642 0014925 334.4503  25.5968 14.78912782252314
DELTA 2 R/B             
1 25876U 99041E   22281.12323924  .00001582  00000+0  30558-3 0  9991
2 25876  51.7662 222.3380 0528407 282.8037  71.4369 14.05299715187080
HELIOS 1B               
1 25977U 99064A   22281.43158633  .00000829  00000+0  10943-3 0  9994
2 25977  98.3155 120.1900 0002106 116.1858 243.9571 14.82886185231328
TERRA                   
1 25994U 99068A   22281.50109124  .00000607  00000+0  14434-3 0  9999
2 25994  98.1271 350.7721 0001031  98.2438 318.4702 14.57172531213088
SL-16 R/B               
1 26070U 00006B   22281.17422586  .00000314  00000+0  18462-3 0  9992
2 26070  71.0032 202.3297 0018840 280.7169  79.1832 14.15502869171841
TITAN 4B R/B            
1 26474U 00047B   22280.68958464  .00003928  00000+0  33897-3 0  9992
2 26474  67.9931 276.0477 0055994 346.1880  13.7727 14.97148402205245
ENVISAT                 
1 27386U 02009A   22281.52249017  .00000316  00000+0  11785-3 0  9996
2 27386  98.1971 257.3963 0001186  87.7950  21.5784 14.38163815 79788
